{"type":"Feature","properties":{"osm_type":"relation","osm_id":7466521,"name":"Massif des Bauges","name:en":"Bauges Mountains","name:de":"Bauget-Alpen","wikidata":"Q811362","wikipedia":"fr:Massif des Bauges","place":"region","region:type":"mountain_area","boundary":"natural","source":"OpenStreetMap relation 7466521 via polygons.openstreetmap.fr","license":"ODbL"},"geometry":{"type":"MultiPolygon","coordinates":[[[[5.9143015,45.5773244],[5.9148132,45.5766335],[5.9149632,45.5762427],[5.9151692,45.5751853],[5.9154131,45.5741647],[5.9156601,45.5735094],[5.9157747,45.5732746],[5.9160568,45.5728069],[5.9163737,45.5723745],[5.9170541,45.5713926],[5.9175995,45.5708118],[5.9179274,45.5704138],[5.9181753,45.5701413],[5.9190221,45.569239],[5.919615,45.5688895],[5.9197206,45.5688585],[5.91984,45.5688119],[5.9200193,45.5687547],[5.9209438,45.5684825],[5.9214435,45.5683614],[5.9218338,45.5682241],[5.9232696,45.5676131],[5.9235451,45.5675207],[5.9237485,45.5674774],[5.9239916,45.5674552],[5.9242276,45.5674472],[5.9242501,45.5674477],[5.9244557,45.5674521],[5.9245363,45.5674564],[5.9249496,45.5674803],[5.9261979,45.5675623],[5.9268667,45.5675478],[5.9274683,45.5674896],[5.929607,45.5672357],[5.929674,45.5672313],[5.9297826,45.5672227],[5.9298841,45.5672222],[5.9318039,45.5673114],[5.9318876,45.5672293],[5.9319762,45.5671503],[5.9320682,45.5670644],[5.9323428,45.5669814],[5.9328899,45.5666019],[5.9330635,45.5665247],[5.9332738,45.5664625],[5.9337343,45.566411],[5.9339249,45.5663613],[5.934179,45.5662022],[5.9343993,45.5660776],[5.9351806,45.5657644],[5.9360967,45.5654328],[5.9366699,45.5652264],[5.9372178,45.5650796],[5.9375237,45.5650518],[5.9377273,45.5650075],[5.9378063,45.564986],[5.9379712,45.5649238],[5.9383495,45.5648294],[5.938366,45.5648248],[5.9385822,45.5647437],[5.9387844,45.564638],[5.9391289,45.5643989],[5.9393438,45.5642419],[5.9394217,45.5641814],[5.9394519,45.5641604],[5.939571,45.5640759],[5.9398237,45.5637412],[5.9399577,45.5635927],[5.940255,45.563404],[5.9405646,45.5631893],[5.9406995,45.5629372],[5.9407373,45.5628462],[5.9408003,45.5624451],[5.94084,45.5623531],[5.9409481,45.5622187],[5.9409788,45.562159],[5.9409718,45.5621104],[5.9409576,45.562042],[5.9408567,45.5618868],[5.9408425,45.5618286],[5.9408872,45.5617489],[5.9409853,45.5616479],[5.9411553,45.5615089],[5.9412607,45.5614404],[5.9413667,45.5613985],[5.9413974,45.5613904],[5.941485,45.561376],[5.941719,45.561339],[5.941889,45.561322],[5.9420968,45.5612882],[5.9422054,45.5612383],[5.9423066,45.5612231],[5.9424615,45.5612724],[5.9426248,45.5612843],[5.9428367,45.5612283],[5.9429972,45.5612994],[5.9430362,45.5613102],[5.943654,45.561133],[5.9438082,45.5611546],[5.9438672,45.5611499],[5.9439785,45.5610907],[5.9440777,45.5610682],[5.944189,45.5610522],[5.9446021,45.5610128],[5.9447443,45.5609874],[5.9449483,45.5608997],[5.9450931,45.5608293],[5.9453931,45.5607586],[5.9454231,45.5607129],[5.9455581,45.5604492],[5.9456793,45.5604369],[5.9457609,45.5603999],[5.9458066,45.5603411],[5.9459825,45.5600144],[5.9461081,45.559907],[5.9461811,45.5598348],[5.946247,45.5597955],[5.9464902,45.5597111],[5.9466857,45.5596035],[5.9468702,45.5594935],[5.9469283,45.5594368],[5.946962,45.5593506],[5.9470613,45.5589708],[5.947089,45.5589125],[5.9471458,45.5588908],[5.9472208,45.5588806],[5.9473321,45.5588655],[5.9476718,45.5588117],[5.9478672,45.5587855],[5.9479709,45.5587631],[5.9480602,45.5587404],[5.9484012,45.5586026],[5.9484734,45.5585389],[5.9485104,45.5584622],[5.9485339,45.5582756],[5.9485133,45.5581138],[5.9485175,45.5579364],[5.9486097,45.5577998],[5.9489473,45.5576371],[5.9490268,45.5575789],[5.9491863,45.5573616],[5.9493018,45.557222],[5.9494782,45.5571103],[5.9498933,45.5568862],[5.9501464,45.5566202],[5.9502849,45.5565009],[5.9507732,45.556107],[5.9519584,45.5551522],[5.9521134,45.5550308],[5.9522097,45.5550163],[5.9522957,45.5550364],[5.9523469,45.5550613],[5.9524327,45.5551158],[5.9524857,45.5551562],[5.9525479,45.55516],[5.9526133,45.5551464],[5.9526798,45.5551055],[5.953214,45.5546797],[5.9535821,45.5543733],[5.9538566,45.5541448],[5.9542387,45.5539739],[5.954392,45.5538426],[5.9546898,45.5535874],[5.9553266,45.5529408],[5.9558622,45.5523606],[5.9562236,45.5519366],[5.9563582,45.5518168],[5.9563851,45.5517765],[5.956485,45.5516109],[5.9565523,45.5515113],[5.9566578,45.551452],[5.9567737,45.5513654],[5.9568071,45.5513159],[5.9567992,45.5511756],[5.9568287,45.5510559],[5.957031,45.5507602],[5.9573217,45.5503407],[5.957623,45.5498836],[5.9578358,45.5495083],[5.957884,45.5494858],[5.9580366,45.5494984],[5.9581269,45.5494746],[5.9582052,45.5494296],[5.9582533,45.5493776],[5.9582674,45.5493284],[5.9582252,45.549251],[5.9581349,45.5491358],[5.9579807,45.5490468],[5.9578731,45.5489908],[5.9578057,45.5489446],[5.9577776,45.5488926],[5.9578077,45.5488223],[5.9579089,45.5486287],[5.9579368,45.5483339],[5.9580523,45.5480212],[5.9582802,45.5477454],[5.9586271,45.5473533],[5.9589232,45.5469186],[5.9595237,45.5458801],[5.9596657,45.5454369],[5.9603432,45.544323],[5.9608463,45.5434422],[5.9616334,45.5420527],[5.9621932,45.5411605],[5.9623312,45.5408962],[5.9623287,45.5407586],[5.9622704,45.5406597],[5.9619296,45.5405624],[5.9618431,45.5404955],[5.9618749,45.5404012],[5.9620841,45.5400598],[5.9622179,45.5399208],[5.9622092,45.5398453],[5.9621014,45.5396655],[5.9620885,45.53946],[5.962013,45.5393286],[5.9619159,45.5392168],[5.9619224,45.5391458],[5.9619936,45.5390915],[5.9621273,45.5390174],[5.9621963,45.5388936],[5.9624249,45.5386851],[5.9626018,45.5385582],[5.9629861,45.5383645],[5.9630438,45.5382841],[5.9634294,45.5372352],[5.9634697,45.5370499],[5.9635347,45.5367908],[5.9636069,45.5365252],[5.9636043,45.5364858],[5.9635683,45.5363829],[5.9635518,45.5363205],[5.9634966,45.5362004],[5.9634667,45.5360822],[5.963523,45.5359684],[5.9637515,45.535858],[5.9637652,45.5357769],[5.9639377,45.5356863],[5.9640097,45.5354242],[5.9638271,45.5351659],[5.9638977,45.5349801],[5.9640652,45.5349119],[5.9641975,45.5347912],[5.9643636,45.5347007],[5.9643944,45.5345878],[5.9644345,45.5345193],[5.9645729,45.5344924],[5.9646847,45.5344485],[5.964719,45.5343892],[5.964645,45.5343289],[5.9644946,45.5342711],[5.964535,45.5342071],[5.9646263,45.5341414],[5.9647158,45.534049],[5.9648183,45.5339605],[5.9647786,45.5338409],[5.964779,45.5334603],[5.964697,45.5331808],[5.9647647,45.5330488],[5.9647028,45.5329792],[5.9647357,45.5328975],[5.9648116,45.532792],[5.9649507,45.5327452],[5.9649807,45.5327053],[5.9776908,45.5191193],[5.9777822,45.5191967],[5.9779768,45.5193858],[5.9781455,45.5195096],[5.97829,45.5195355],[5.9783721,45.5195297],[5.9785357,45.5194906],[5.9787475,45.519421],[5.9788366,45.5194065],[5.9788836,45.5194124],[5.9790729,45.5194949],[5.9793896,45.5196549],[5.9795372,45.5197449],[5.9798636,45.5199256],[5.9801316,45.5200493],[5.9807188,45.5203352],[5.980828,45.5203083],[5.980904,45.5202759],[5.9810221,45.520274],[5.9810681,45.5202788],[5.9813156,45.5204832],[5.9813758,45.5205353],[5.9814788,45.5205774],[5.9815618,45.5204977],[5.9816575,45.5204601],[5.9817651,45.5204487],[5.9819411,45.5204826],[5.9819862,45.5204827],[5.9821637,45.5204373],[5.9823226,45.520486],[5.9824478,45.5205359],[5.9825726,45.5205477],[5.9826747,45.5205205],[5.9828013,45.5205243],[5.9828842,45.5205153],[5.9831641,45.5204157],[5.9833084,45.5203444],[5.9833866,45.520299],[5.9834382,45.5202942],[5.9835132,45.5203028],[5.9838029,45.5203156],[5.984153,45.5203467],[5.9844474,45.5203853],[5.984639,45.520394],[5.9847459,45.520365],[5.9848159,45.5203676],[5.9848791,45.5203763],[5.9849728,45.5204642],[5.9849928,45.5205645],[5.9850638,45.5206041],[5.9852651,45.5205472],[5.9854968,45.520579],[5.9858105,45.5207156],[5.9861577,45.5208026],[5.9863614,45.5208701],[5.9865992,45.5209215],[5.9868481,45.5210859],[5.9875664,45.5212581],[5.9883807,45.5214426],[5.9885778,45.5214496],[5.9886724,45.5214353],[5.988885,45.5213374],[5.9895719,45.5210133],[5.9908282,45.5205724],[5.9918412,45.5202029],[5.9921301,45.5200899],[5.9923364,45.519971],[5.9925061,45.519859],[5.9926191,45.5197813],[5.9926406,45.5197682],[5.992755,45.5196987],[5.9938359,45.518976],[5.9942573,45.5187255],[5.9950903,45.5182271],[5.995129,45.5181976],[5.9951756,45.5181523],[5.9951857,45.5181212],[5.9951912,45.5180037],[5.9952065,45.5179712],[5.995247,45.5179414],[5.9953756,45.5178973],[5.9956301,45.5178341],[5.9959061,45.5177481],[5.9962673,45.5175431],[5.9970172,45.5170456],[5.9974912,45.5167508],[5.9980731,45.5163764],[5.9983513,45.5162227],[5.9985656,45.5160678],[5.9989222,45.5158354],[5.9990906,45.5157214],[5.9994627,45.515506],[5.999737,45.5153596],[5.9998572,45.515293],[6.0009835,45.5146311],[6.0014421,45.5143724],[6.0015508,45.5143142],[6.0016216,45.5142787],[6.0017305,45.5142247],[6.0037642,45.5132438],[6.0042052,45.5130297],[6.0046616,45.5128098],[6.0047874,45.5127748],[6.0051641,45.5126093],[6.0062953,45.5121272],[6.0065754,45.5120092],[6.0069223,45.5118608],[6.007337,45.5116726],[6.0086289,45.5110985],[6.0091091,45.5108636],[6.0095003,45.5106764],[6.0096223,45.5106505],[6.0098384,45.5105855],[6.0101186,45.5104931],[6.0104116,45.510479],[6.0107178,45.5103604],[6.0109808,45.5102256],[6.0112785,45.5100581],[6.0113877,45.5098957],[6.0115517,45.5097298],[6.0124445,45.5091138],[6.0128769,45.5088271],[6.0130548,45.5087334],[6.013418,45.5086174],[6.0136671,45.5085453],[6.0139717,45.5084482],[6.0144365,45.5083058],[6.0147703,45.5081875],[6.0152448,45.5080386],[6.016266,45.5077495],[6.0167265,45.5076063],[6.0173093,45.5074137],[6.0203338,45.5064786],[6.0235878,45.5071896],[6.0237123,45.5071785],[6.0239278,45.5070852],[6.0241299,45.5070543],[6.0244068,45.5069865],[6.025141,45.5067438],[6.0256452,45.5065564],[6.0262067,45.5063685],[6.0268595,45.506128],[6.0275017,45.5059051],[6.0281428,45.505662],[6.0285638,45.5054369],[6.0288333,45.5053958],[6.0291644,45.5053613],[6.0295594,45.5053507],[6.0298157,45.5053325],[6.0302931,45.5052603],[6.0305433,45.5052096],[6.0309127,45.5051322],[6.0312098,45.5050884],[6.0315997,45.50504],[6.0318351,45.5050347],[6.0332115,45.504705],[6.0336326,45.5045863],[6.0341996,45.5044811],[6.0349785,45.5042831],[6.0352256,45.5041752],[6.0354744,45.5041276],[6.0358439,45.5041288],[6.0360592,45.50408],[6.0364819,45.5040195],[6.0368989,45.504009],[6.0371072,45.5040097],[6.0371947,45.5040071],[6.0372939,45.5039993],[6.0374464,45.5039899],[6.0375255,45.5039825],[6.0376041,45.5039802],[6.0377258,45.5039614],[6.0378049,45.5039569],[6.0379289,45.503948],[6.0380282,45.5039451],[6.0384231,45.503935],[6.0386206,45.5039262],[6.0395268,45.503837],[6.0395667,45.5038216],[6.0398042,45.5037997],[6.0400032,45.5037473],[6.0403955,45.5035823],[6.0415307,45.5028849],[6.0426746,45.5021162],[6.0429712,45.5020066],[6.0430785,45.5019186],[6.043134,45.5018149],[6.0431715,45.50168],[6.0431515,45.5015537],[6.0430771,45.5013104],[6.0429896,45.500823],[6.0429559,45.500692],[6.0426913,45.5005852],[6.0426687,45.498098],[6.0426818,45.4975286],[6.0427362,45.4972332],[6.0426298,45.4969939],[6.0422485,45.4963032],[6.0407649,45.4928329],[6.0401036,45.4914042],[6.0399515,45.4909356],[6.0397888,45.4902674],[6.0397235,45.4896695],[6.0397878,45.4891199],[6.0399097,45.4885853],[6.0400383,45.4882386],[6.0402435,45.4877629],[6.0403553,45.4875137],[6.0403384,45.4874639],[6.0403206,45.4874432],[6.0399311,45.4872062],[6.0398279,45.4871422],[6.0398039,45.4871082],[6.0397934,45.4870439],[6.0397988,45.4869076],[6.0398145,45.4868582],[6.0399476,45.4863571],[6.0412422,45.4870312],[6.041317,45.4870952],[6.0458184,45.4898296],[6.0471493,45.4906575],[6.0474824,45.4908614],[6.0500323,45.4923792],[6.0591027,45.4978738],[6.0621101,45.4990657],[6.067897,45.5012615],[6.0715956,45.5026378],[6.073553,45.5034128],[6.0752746,45.5042006],[6.076376,45.5047046],[6.0803668,45.5064131],[6.083502,45.5077375],[6.0847006,45.5083083],[6.0853812,45.5087111],[6.0862371,45.5093266],[6.0877931,45.5108699],[6.0884925,45.5114179],[6.0898167,45.5122039],[6.0914286,45.5126101],[6.0924742,45.5130479],[6.0934469,45.5135469],[6.0944547,45.5144839],[6.0970169,45.5163014],[6.1009585,45.5186951],[6.1035345,45.5199079],[6.1049565,45.5207863],[6.1059392,45.5215781],[6.1078351,45.5231055],[6.1097084,45.5243005],[6.1112409,45.5253575],[6.1140498,45.5265898],[6.1167029,45.5280498],[6.1182304,45.5291954],[6.1238255,45.5326624],[6.1304506,45.5367326],[6.1322329,45.5381325],[6.1368694,45.5412445],[6.1380771,45.5419397],[6.1414706,45.5434397],[6.1457233,45.5460345],[6.1471522,45.5468992],[6.1485609,45.5476177],[6.1551637,45.5493458],[6.1567044,45.5498312],[6.1600968,45.5508751],[6.1614028,45.5512278],[6.1636831,45.5523083],[6.1655952,45.5530774],[6.1680148,45.5537467],[6.1688385,45.5539238],[6.1697285,45.5540343],[6.1706513,45.5540328],[6.1714154,45.5540319],[6.1719778,45.5541227],[6.1726033,45.5542852],[6.1753644,45.5550584],[6.1761063,45.5552662],[6.1775417,45.5557154],[6.179804,45.5563616],[6.1818938,45.5572906],[6.1826762,45.5577659],[6.1835051,45.5580307],[6.18519,45.558533],[6.1862685,45.5588155],[6.1883008,45.5590665],[6.1896755,45.559241],[6.1917538,45.5597532],[6.1952382,45.5607738],[6.1994266,45.562561],[6.2005245,45.5629579],[6.201056,45.5631114],[6.2027147,45.5635731],[6.2043685,45.5638364],[6.2055391,45.5640669],[6.2193055,45.5680666],[6.2355698,45.5726565],[6.2359511,45.5728716],[6.2366016,45.5731649],[6.2384602,45.5737594],[6.2396677,45.5740644],[6.2416657,45.5745463],[6.2453252,45.575435],[6.258641,45.5791949],[6.2637797,45.5804817],[6.2662198,45.5813755],[6.2670892,45.581724],[6.2683194,45.5823879],[6.2693913,45.5831139],[6.2700978,45.583767],[6.2707382,45.5844372],[6.2715183,45.5855469],[6.2720749,45.5862895],[6.27239,45.5866516],[6.2726347,45.5870363],[6.2731125,45.5879669],[6.2733081,45.5884429],[6.2734697,45.5889814],[6.2736387,45.5901226],[6.2738206,45.5908661],[6.2744464,45.592399],[6.2747435,45.5931415],[6.2749341,45.5934899],[6.2751956,45.5937858],[6.2765952,45.5951993],[6.277018,45.5956768],[6.2773188,45.5962909],[6.2774666,45.5968894],[6.2774861,45.597856],[6.27756,45.5982915],[6.2776865,45.5987488],[6.278148,45.5998983],[6.2789526,45.6016556],[6.2793844,45.6024503],[6.2797927,45.603208],[6.2804465,45.6042439],[6.2809863,45.6048171],[6.281778,45.6056177],[6.2828766,45.6060879],[6.2839814,45.6067942],[6.2846717,45.6072112],[6.2874915,45.6095779],[6.2883347,45.6099103],[6.2901134,45.6104134],[6.2910624,45.6107253],[6.2922168,45.6111906],[6.2932767,45.6117818],[6.295114,45.6130722],[6.2971394,45.6143537],[6.2981742,45.6149186],[6.2984953,45.615091],[6.2994027,45.6155473],[6.3025982,45.6166057],[6.3031689,45.6167899],[6.3045275,45.6174183],[6.3049543,45.6176706],[6.3052205,45.6178958],[6.3063823,45.6188775],[6.3071451,45.6194083],[6.3078252,45.6197901],[6.3082396,45.619958],[6.3090273,45.6201601],[6.3098208,45.6203207],[6.3110651,45.620785],[6.3116296,45.6210818],[6.312275,45.6213655],[6.3127074,45.6215532],[6.3133439,45.6219327],[6.3137783,45.622246],[6.3141304,45.6225321],[6.3150255,45.6231756],[6.3185931,45.62472],[6.3199423,45.6254206],[6.321131,45.626228],[6.3219117,45.6268419],[6.3228051,45.627294],[6.3233855,45.627483],[6.324955,45.6278854],[6.325921,45.6282539],[6.3268051,45.628825],[6.3278185,45.6298798],[6.3285702,45.6307585],[6.3298979,45.6323236],[6.3304098,45.633104],[6.330766,45.63389],[6.3311116,45.6348587],[6.3312505,45.6354981],[6.3310688,45.6374129],[6.3310181,45.6378905],[6.3309608,45.6385777],[6.3309643,45.6388593],[6.3310404,45.6395172],[6.3311273,45.6398448],[6.3313896,45.6406959],[6.3317807,45.6415756],[6.3321429,45.6420488],[6.3326199,45.6425843],[6.3334217,45.6434034],[6.3343171,45.6442042],[6.336818,45.6461671],[6.3379702,45.6468451],[6.3399422,45.6477369],[6.3417131,45.648374],[6.3466554,45.6496814],[6.3539635,45.6513916],[6.3565041,45.6521576],[6.3590687,45.6531493],[6.36024,45.6535084],[6.3612424,45.653717],[6.364275,45.6541191],[6.3654543,45.6542519],[6.3655249,45.654261],[6.3666704,45.6543724],[6.3677005,45.6545071],[6.3682702,45.6546222],[6.3691649,45.6548832],[6.3695306,45.6550273],[6.3698573,45.6551714],[6.3702009,45.6552651],[6.3705568,45.6553585],[6.3713161,45.655495],[6.3737942,45.6557696],[6.3743526,45.6558201],[6.3753152,45.6557914],[6.3760349,45.6558131],[6.376737,45.6558845],[6.3785829,45.6561095],[6.3802497,45.6563563],[6.3808752,45.6565448],[6.3828412,45.657203],[6.3835105,45.6574327],[6.3846862,45.6578325],[6.3850073,45.6579538],[6.3855994,45.6581707],[6.3858082,45.6583089],[6.3869087,45.6589515],[6.3882299,45.6596307],[6.3885794,45.6599436],[6.3888261,45.6603027],[6.3890796,45.6605703],[6.3895587,45.6610012],[6.3898503,45.6612629],[6.390069,45.6614826],[6.3903125,45.661917],[6.3903667,45.6620738],[6.3905215,45.6625134],[6.3905759,45.662777],[6.3906412,45.6630989],[6.39074,45.663425],[6.3910573,45.6641656],[6.3913747,45.6650238],[6.3916299,45.6659989],[6.3918417,45.6665647],[6.3921055,45.6673552],[6.3921025,45.6677924],[6.3921129,45.6681344],[6.3921954,45.6685462],[6.3921834,45.6687671],[6.392245,45.6690484],[6.3923212,45.6693753],[6.3924227,45.669725],[6.3924953,45.6699987],[6.3926476,45.67028],[6.392972,45.6707384],[6.3931771,45.6711872],[6.3935869,45.6723149],[6.3940601,45.6739321],[6.3942018,45.674669],[6.3943917,45.6759285],[6.3944855,45.676674],[6.3948159,45.6781257],[6.3950733,45.6792466],[6.3954668,45.6804295],[6.3957186,45.6812027],[6.3967944,45.6829397],[6.3970499,45.6833336],[6.3972097,45.68363],[6.3976428,45.6843556],[6.39789,45.6847256],[6.3980914,45.6850112],[6.3984486,45.6854789],[6.3986373,45.6859967],[6.3988502,45.6863462],[6.3993002,45.686945],[6.399598,45.6872803],[6.400406,45.6882226],[6.4006249,45.68858],[6.4009038,45.6892208],[6.4010677,45.6898001],[6.4014423,45.6909748],[6.4019177,45.6919357],[6.4022452,45.6927284],[6.4025204,45.6934192],[6.4026376,45.6936643],[6.4029919,45.694243],[6.4031417,45.6945979],[6.4035491,45.6955208],[6.403768,45.6961289],[6.4039685,45.6966777],[6.40429,45.6975023],[6.4044659,45.6979041],[6.4047659,45.6985991],[6.4050876,45.6993704],[6.4055139,45.7000647],[6.4061076,45.7008658],[6.4066003,45.7022403],[6.406828,45.7031374],[6.4071402,45.70359],[6.407247,45.7039441],[6.4072765,45.7044916],[6.4071784,45.705232],[6.4069512,45.7058127],[6.4069156,45.7060796],[6.4068594,45.7064501],[6.4064406,45.7070481],[6.4063879,45.7079173],[6.4063454,45.7082423],[6.406234,45.7091594],[6.4064785,45.7099782],[6.4065864,45.7107366],[6.4067784,45.7119394],[6.4071676,45.7125604],[6.4074818,45.7134311],[6.4077864,45.7139506],[6.4080616,45.7144654],[6.408309,45.71503],[6.4084472,45.7152511],[6.408731,45.7159229],[6.4090257,45.7166969],[6.4091486,45.7170583],[6.409623,45.7174324],[6.4098524,45.7176117],[6.4103308,45.7179136],[6.4110332,45.7184544],[6.4113927,45.719051],[6.4116111,45.7206669],[6.4118216,45.7210924],[6.4120065,45.7214427],[6.4121895,45.7217481],[6.4126221,45.7222905],[6.4133816,45.7231363],[6.4153469,45.7254762],[6.4162886,45.7265858],[6.4181526,45.7286822],[6.4193626,45.729812],[6.4198872,45.7303658],[6.4216217,45.7328733],[6.4222585,45.733617],[6.4228177,45.7344108],[6.4234792,45.7357761],[6.4237523,45.7365256],[6.4239259,45.7374129],[6.4243039,45.7388705],[6.4246207,45.7394805],[6.4238239,45.7414],[6.4228753,45.7431579],[6.4228481,45.7438839],[6.4227936,45.7441264],[6.4226694,45.7444118],[6.4222363,45.7447253],[6.421512,45.7448897],[6.4210726,45.7448643],[6.4208009,45.7448768],[6.4199298,45.7449546],[6.4195734,45.7449203],[6.4191313,45.7447659],[6.4187745,45.7447704],[6.4179491,45.74479],[6.4175211,45.7447248],[6.4169972,45.7447531],[6.4163494,45.7448524],[6.4158355,45.7449165],[6.4148294,45.745335],[6.413953,45.7455621],[6.4131157,45.7457444],[6.4128803,45.7458947],[6.4127916,45.7459514],[6.4127514,45.746206],[6.4129177,45.746672],[6.412805,45.7472916],[6.412555,45.7477735],[6.4121085,45.7482066],[6.4120246,45.7483027],[6.4118232,45.748512],[6.4114542,45.7487373],[6.4111303,45.7488408],[6.4105962,45.7487774],[6.4100826,45.7485288],[6.4094567,45.7484519],[6.4089534,45.748379],[6.4084652,45.7484751],[6.4078594,45.7485576],[6.4071394,45.7486093],[6.4067353,45.7485239],[6.40607,45.7483173],[6.4055579,45.7482673],[6.4052375,45.7484447],[6.4048755,45.7488096],[6.4041501,45.7494934],[6.4040892,45.7495713],[6.4039662,45.7497849],[6.4030601,45.7507818],[6.4019444,45.751696],[6.4020877,45.7520993],[6.4021397,45.7522386],[6.402209,45.752424],[6.4018642,45.7532422],[6.4014392,45.753632],[6.4012312,45.7538892],[6.4011345,45.7541094],[6.400705,45.7544562],[6.4004339,45.754948],[6.4000788,45.7550979],[6.3993388,45.7549888],[6.398748,45.7548006],[6.3985246,45.7546658],[6.3983705,45.7546073],[6.3981025,45.7545396],[6.3977096,45.7546781],[6.3973227,45.7547664],[6.3967903,45.7547763],[6.396239,45.7547735],[6.3954092,45.7549511],[6.3950756,45.7549969],[6.3948702,45.7553344],[6.3942817,45.7554292],[6.3937667,45.7555733],[6.3935325,45.7559301],[6.3928577,45.7559625],[6.3923422,45.7562711],[6.3919434,45.7566949],[6.3916564,45.7574074],[6.3914924,45.7579716],[6.3911384,45.7585619],[6.3906427,45.7590325],[6.3902738,45.7592951],[6.3901433,45.7593081],[6.3898042,45.7593341],[6.3895396,45.7594277],[6.389111,45.7597865],[6.3888294,45.760209],[6.3887172,45.7604344],[6.3882785,45.7606503],[6.3875475,45.7610322],[6.3871054,45.7613359],[6.3869048,45.7614782],[6.3866158,45.7615185],[6.3859697,45.7615257],[6.3855315,45.7615134],[6.3851396,45.7615453],[6.3848222,45.7616878],[6.3847044,45.7618841],[6.3847116,45.7621357],[6.3848559,45.7624779],[6.3848803,45.7627489],[6.3847823,45.7629795],[6.3843591,45.763315],[6.3841403,45.76331],[6.3838854,45.7632714],[6.3838926,45.7633401],[6.3838638,45.7636337],[6.3837219,45.7638702],[6.3834084,45.7642577],[6.3831319,45.7644388],[6.3828361,45.7644657],[6.3826469,45.764341],[6.3824129,45.7642336],[6.382168,45.7641643],[6.3819465,45.7642929],[6.3818167,45.7644472],[6.3816748,45.764573],[6.3813767,45.7646334],[6.3808501,45.7645462],[6.3802958,45.7645336],[6.3796635,45.7647634],[6.3793557,45.7648976],[6.3793124,45.7650737],[6.3792595,45.7652465],[6.3791201,45.7653706],[6.3786656,45.7654243],[6.3783362,45.7653974],[6.3776678,45.7652565],[6.3773745,45.7652079],[6.3771989,45.7652481],[6.3768623,45.7653823],[6.3764992,45.7654293],[6.3761722,45.7653605],[6.3758158,45.7651885],[6.375597,45.76516],[6.3754527,45.7652405],[6.3754383,45.7653814],[6.3756282,45.7655408],[6.3757725,45.7657068],[6.3756571,45.7658343],[6.3753926,45.7658712],[6.3748083,45.7659467],[6.3740231,45.765985],[6.3737779,45.7659649],[6.373511,45.7658609],[6.3730998,45.7659615],[6.3722991,45.7660789],[6.3718687,45.766141],[6.3716884,45.7661225],[6.3714023,45.7660638],[6.3713181,45.7660823],[6.3711596,45.7661729],[6.3711141,45.7661927],[6.3708756,45.7663274],[6.3708472,45.7663432],[6.37062,45.7664661],[6.3703644,45.7665334],[6.3702451,45.7665572],[6.3696715,45.7665176],[6.3689842,45.7664978],[6.368456,45.7664819],[6.3684503,45.7664819],[6.3679278,45.7664621],[6.3670531,45.7664423],[6.3664284,45.7663313],[6.3647188,45.7658202],[6.3641735,45.7656063],[6.3636034,45.7654115],[6.3632502,45.7650859],[6.3628444,45.7648971],[6.3627628,45.7646119],[6.362941,45.7641205],[6.3630432,45.7636252],[6.3629575,45.7633691],[6.3628444,45.7632646],[6.3625216,45.7632456],[6.3621458,45.7633676],[6.3616858,45.763542],[6.3612939,45.7636965],[6.3606918,45.7637084],[6.3600841,45.7636886],[6.359465,45.763744],[6.359164,45.7638788],[6.3585335,45.7643106],[6.357727,45.7647108],[6.357284,45.7648178],[6.3569035,45.7647544],[6.3568093,45.7647763],[6.3564775,45.7648535],[6.3556823,45.7649248],[6.3551598,45.7649961],[6.354677,45.7650159],[6.3542606,45.7649994],[6.3541772,45.7649961],[6.3533991,45.7648059],[6.35278,45.7646474],[6.3523426,45.7644493],[6.351786,45.7639937],[6.3514022,45.7637923],[6.3510761,45.7636212],[6.3505574,45.7633635],[6.3499908,45.7627699],[6.3490824,45.7622981],[6.3487997,45.7620121],[6.3479576,45.7615744],[6.3473403,45.7615473],[6.3463861,45.7609297],[6.3456519,45.7607142],[6.3455171,45.7606889],[6.3446756,45.7603289],[6.3439195,45.7599619],[6.3436828,45.7594894],[6.3434362,45.7591385],[6.3428295,45.7589524],[6.3420194,45.7588496],[6.3411384,45.7587211],[6.3406959,45.7587524],[6.3402245,45.7587899],[6.3397855,45.7588274],[6.3392777,45.7588379],[6.3385421,45.7586484],[6.3376403,45.7583933],[6.3374107,45.7582905],[6.3353696,45.7577179],[6.3348241,45.7577902],[6.3343174,45.7580085],[6.3336767,45.7579213],[6.3332976,45.7576249],[6.3331343,45.7571974],[6.3323942,45.75719],[6.3319544,45.7571911],[6.3314647,45.7569752],[6.3308703,45.7574588],[6.3306316,45.7574544],[6.3301114,45.7571982],[6.3297191,45.7572332],[6.3288458,45.757702],[6.3279327,45.7580051],[6.3272002,45.7579639],[6.3267341,45.757769],[6.3254959,45.7576175],[6.3242751,45.7575072],[6.3237266,45.7573042],[6.3228215,45.757242],[6.3221172,45.7575494],[6.3216978,45.7577684],[6.3212645,45.7578663],[6.3207902,45.7581565],[6.3203254,45.758483],[6.3193736,45.7592284],[6.3190891,45.7594889],[6.317203,45.7587958],[6.3142955,45.7570816],[6.3065814,45.7545889],[6.2945651,45.7503967],[6.286497,45.7510555],[6.2812281,45.7532115],[6.2808,45.7538671],[6.2806362,45.7540748],[6.280168,45.7544458],[6.279837,45.7549218],[6.2794591,45.7553231],[6.2791648,45.7556381],[6.2786933,45.755925],[6.2782956,45.7562926],[6.2781356,45.7565995],[6.2779713,45.756815],[6.2774701,45.7573223],[6.2764359,45.7582029],[6.2755875,45.7585809],[6.2755011,45.7586423],[6.2751797,45.7588705],[6.274814,45.7591459],[6.2744936,45.7592503],[6.2740525,45.759262],[6.273399,45.7593471],[6.2726898,45.7594233],[6.2721998,45.7595512],[6.2717541,45.7596522],[6.2714307,45.7596841],[6.2708177,45.7596015],[6.2701493,45.7595872],[6.2699492,45.7596069],[6.2692752,45.7596733],[6.2683595,45.7600617],[6.2681196,45.7600998],[6.2677124,45.7600592],[6.2672143,45.7601251],[6.2667853,45.7602164],[6.2664581,45.7602063],[6.2658751,45.7600998],[6.2653948,45.7600569],[6.2648294,45.7600795],[6.2642555,45.7601665],[6.2636402,45.7603093],[6.2628852,45.7606284],[6.2625511,45.7608107],[6.2620884,45.7610008],[6.2618593,45.7610748],[6.2616462,45.7611115],[6.261507,45.7611072],[6.2613785,45.7610731],[6.2612649,45.7610333],[6.2611325,45.7609467],[6.2609536,45.7608971],[6.2608118,45.7608963],[6.2606861,45.7608749],[6.2605795,45.7608134],[6.2605112,45.7607578],[6.2603467,45.7606],[6.2602516,45.7603991],[6.2601693,45.7600691],[6.2598454,45.7597337],[6.2593441,45.7593678],[6.2590725,45.7592141],[6.2587023,45.7591441],[6.2580776,45.7590849],[6.2574529,45.7589199],[6.2567302,45.7588709],[6.2563521,45.7588608],[6.2560394,45.7588608],[6.2557195,45.7587745],[6.255316,45.7585056],[6.2549451,45.7582774],[6.2546626,45.7581656],[6.2542809,45.7580438],[6.253452,45.7576887],[6.252274,45.7571408],[6.2499291,45.7559689],[6.249369,45.7557592],[6.2492392,45.7557336],[6.2490182,45.7557838],[6.2487534,45.7559237],[6.2485426,45.7560206],[6.2474629,45.7563704],[6.2463549,45.7566681],[6.2450772,45.7571075],[6.2442764,45.7574255],[6.2433072,45.7578416],[6.2427931,45.7580963],[6.2426465,45.7582613],[6.2425794,45.75838],[6.2426748,45.7585895],[6.2426388,45.7587223],[6.2425823,45.759002],[6.2425591,45.7591402],[6.2427391,45.75928],[6.2432712,45.7595455],[6.2433406,45.7597553],[6.2435864,45.7599832],[6.2436706,45.760062],[6.2436363,45.7601463],[6.2433021,45.760193],[6.2431967,45.7602539],[6.2432764,45.760358],[6.2434178,45.7604745],[6.2433792,45.7605588],[6.2433612,45.760688],[6.2434178,45.760853],[6.2432738,45.7609606],[6.2429499,45.7610072],[6.2424383,45.7609857],[6.2420835,45.7610287],[6.2415308,45.7610861],[6.2411298,45.7612099],[6.2408187,45.761287],[6.2405437,45.7612422],[6.2402377,45.7611579],[6.2400526,45.7612296],[6.2398341,45.7613659],[6.239793,45.7614538],[6.239883,45.7615668],[6.2399627,45.7616834],[6.2399344,45.7617372],[6.2396979,45.7617981],[6.2395616,45.7619291],[6.2394177,45.7621335],[6.2392377,45.7621676],[6.2389215,45.7621891],[6.2388367,45.7622393],[6.2388187,45.7623451],[6.2387955,45.7623936],[6.2384793,45.762433],[6.2384331,45.7624707],[6.2384279,45.762589],[6.2387287,45.7627684],[6.2390295,45.7628258],[6.2390783,45.7629872],[6.2391375,45.7630679],[6.2393431,45.7631074],[6.2396402,45.7630784],[6.2400947,45.7629934],[6.2403782,45.7630644],[6.2404091,45.7630898],[6.2403655,45.7631684],[6.2401655,45.7632179],[6.2399801,45.7632775],[6.2398911,45.7634563],[6.2398311,45.7637695],[6.2397171,45.7639149],[6.2393063,45.7640671],[6.2390264,45.764095],[6.2384498,45.7640666],[6.2378688,45.7641598],[6.2375115,45.7642746],[6.2372544,45.7642513],[6.236913,45.7642526],[6.2365101,45.7644963],[6.236271,45.7646469],[6.2362942,45.7650487],[6.236289,45.7652764],[6.2362607,45.7654002],[6.2358546,45.7657122],[6.2357231,45.7659558],[6.2356948,45.766223],[6.2355046,45.766501],[6.2355252,45.7667467],[6.2354506,45.766883],[6.2355744,45.7672919],[6.2357834,45.7675996],[6.2361433,45.7679445],[6.2364269,45.7684061],[6.2365907,45.768749],[6.2367372,45.76892],[6.2369502,45.7693206],[6.2370438,45.7695415],[6.2370055,45.7696688],[6.237129,45.7698383],[6.2372765,45.7699008],[6.2374538,45.7698327],[6.2375912,45.7697243],[6.2377825,45.7696479],[6.2380885,45.7696794],[6.2382877,45.7698837],[6.2384312,45.7699699],[6.2387319,45.770069],[6.2390274,45.770128],[6.2393024,45.7701889],[6.2394983,45.7702911],[6.2395659,45.770409],[6.2395898,45.7706045],[6.2397039,45.7706655],[6.2398814,45.7706625],[6.2399589,45.7707067],[6.2400096,45.770805],[6.2400182,45.7708778],[6.2400501,45.7711808],[6.2401298,45.7713461],[6.2403091,45.7714795],[6.2407275,45.7717533],[6.2409107,45.7719284],[6.2410142,45.7720888],[6.2412396,45.7725526],[6.2415467,45.7731756],[6.2417595,45.7736189],[6.2418017,45.7737761],[6.2420497,45.774004],[6.2423343,45.7741789],[6.2424808,45.7743794],[6.2424948,45.7746015],[6.2425514,45.7747515],[6.2426724,45.7749748],[6.2427118,45.7752048],[6.2426695,45.7753521],[6.2425061,45.7755251],[6.2424413,45.7756351],[6.2424498,45.7757629],[6.2425709,45.7759476],[6.2428527,45.7761087],[6.2429087,45.7762216],[6.242827,45.776369],[6.2426241,45.7764986],[6.2425311,45.776591],[6.2425678,45.776758],[6.2427002,45.7769054],[6.2427227,45.777098],[6.2425255,45.7772218],[6.2422466,45.7773495],[6.2421217,45.7774941],[6.2420918,45.7777289],[6.2421536,45.7779665],[6.2422532,45.7781388],[6.2425182,45.778243],[6.2427692,45.7782569],[6.2429644,45.7781777],[6.2431617,45.7781083],[6.243341,45.7781402],[6.2433808,45.7782389],[6.2431856,45.7783778],[6.2429007,45.7784362],[6.2425142,45.7783598],[6.24204,45.7783528],[6.2417572,45.7784474],[6.2416952,45.7785476],[6.24176,45.7787893],[6.2416135,45.7789446],[6.2413289,45.7791332],[6.2411757,45.7792798],[6.2412123,45.7794252],[6.2412264,45.7796728],[6.2410263,45.7799459],[6.2408207,45.7801975],[6.2407643,45.7804608],[6.2408235,45.7806907],[6.2408038,45.7809245],[6.2407192,45.7812428],[6.2405772,45.7818604],[6.2404898,45.7820235],[6.2401968,45.7821807],[6.2401095,45.7822475],[6.240101,45.7824695],[6.2401489,45.7826896],[6.2400813,45.7827878],[6.239746,45.7831415],[6.2393318,45.783338],[6.239098,45.7837015],[6.238743,45.7838371],[6.238681,45.7839844],[6.2387683,45.7842792],[6.2387233,45.7844619],[6.2384415,45.7846682],[6.2381485,45.7846878],[6.2373145,45.7845641],[6.2360565,45.7843544],[6.2358424,45.7843702],[6.2357466,45.7844429],[6.2357156,45.7846688],[6.2355463,45.784935],[6.2352251,45.7851629],[6.2347715,45.7853299],[6.2342475,45.7853908],[6.2338434,45.7854326],[6.233644,45.785521],[6.2336327,45.7856546],[6.2337708,45.7858393],[6.2338271,45.785967],[6.2337088,45.7860967],[6.2330015,45.7864545],[6.2323581,45.7867787],[6.2321857,45.7869368],[6.2320896,45.7870877],[6.2318879,45.7874659],[6.2317883,45.7878257],[6.2317964,45.7881385],[6.2317436,45.7883498],[6.2316436,45.7884493],[6.2313314,45.7885399],[6.2309369,45.7886775],[6.2307535,45.7887635],[6.2307218,45.7889623],[6.2306876,45.7893395],[6.230575,45.7899204],[6.2304829,45.790246],[6.2301691,45.7905596],[6.2299331,45.7907413],[6.2297287,45.7908768],[6.2294829,45.790907],[6.229021,45.7908747],[6.2290703,45.7910588],[6.2291871,45.7912188],[6.2293322,45.7915483],[6.2293668,45.791733],[6.2293414,45.7918411],[6.2292521,45.7919764],[6.2291616,45.7920816],[6.2290855,45.792183],[6.2289844,45.7922915],[6.2287799,45.7924046],[6.2285791,45.7925244],[6.2283707,45.7926615],[6.2280581,45.7928116],[6.2278147,45.7928947],[6.227607,45.7929492],[6.2276038,45.7931015],[6.2277007,45.7932095],[6.2278762,45.793303],[6.2279544,45.7934056],[6.228009,45.793477],[6.2280792,45.7935118],[6.2281481,45.7935288],[6.2285399,45.7935567],[6.2288121,45.7936195],[6.2288879,45.7937176],[6.2288475,45.7938231],[6.2288011,45.7938905],[6.2286564,45.7939535],[6.2284228,45.7939793],[6.2282403,45.7940139],[6.2281217,45.7940152],[6.2277133,45.7939629],[6.2275925,45.7939743],[6.227468,45.7940172],[6.2273744,45.7940727],[6.2272825,45.794202],[6.2272697,45.7942877],[6.2272752,45.7943272],[6.2273233,45.7943514],[6.2275895,45.79443],[6.2277258,45.7945197],[6.2278072,45.7945939],[6.2278635,45.7946842],[6.2279685,45.7949359],[6.2280578,45.7950906],[6.2282812,45.7952718],[6.2283319,45.7953936],[6.2282446,45.7955704],[6.2281657,45.7956745],[6.2280135,45.7957394],[6.2278473,45.7957413],[6.2275515,45.7956824],[6.2271965,45.7957374],[6.2268725,45.7959417],[6.2264555,45.7962501],[6.2260357,45.7965723],[6.2257381,45.7968406],[6.2202358,45.7996655],[6.2177936,45.8154428],[6.2171888,45.8193489],[6.2161539,45.8217999],[6.2119102,45.8318494],[6.2070179,45.8348694],[6.2038414,45.8356149],[6.1936404,45.8380075],[6.1908388,45.8386666],[6.1804538,45.8453426],[6.1791658,45.8461706],[6.1761084,45.8489805],[6.1713509,45.853312],[6.167879,45.8565429],[6.1623859,45.8683776],[6.1612627,45.8717679],[6.15803,45.8815242],[6.1554944,45.887428],[6.1549186,45.8887685],[6.1507988,45.8955489],[6.1470437,45.8974007],[6.1391473,45.8986028],[6.1313383,45.8982612],[6.1238476,45.8919201],[6.1231065,45.8912896],[6.1083981,45.8787759],[6.0956952,45.8625205],[6.0847088,45.838607],[6.0709759,45.8268856],[6.0589596,45.8034355],[6.0538098,45.7821303],[6.0387036,45.7622541],[6.0211941,45.7521936],[6.0060879,45.7418917],[5.9951016,45.729431],[5.9817122,45.7139709],[5.9571646,45.69467],[5.9464432,45.687624],[5.9439465,45.6687652],[5.9449765,45.6493286],[5.9343335,45.6310857],[5.9309002,45.6147581],[5.928497,45.6003474],[5.9223172,45.5885759],[5.9143015,45.5773244]]]]}}