{"type":"Feature","properties":{"osm_type":"relation","osm_id":7468871,"name":"Massif de la Chartreuse","name:de":"Chartreuse-Gruppe","name:fr":"Massif de la Chartreuse","wikidata":"Q1067900","wikipedia":"fr:Massif de la Chartreuse","place":"region","region:type":"mountain_area","boundary":"natural","ref:aveo":"91","source":"OpenStreetMap relation 7468871 via polygons.openstreetmap.fr","license":"ODbL"},"geometry":{"type":"MultiPolygon","coordinates":[[[[5.6160655,45.2939019],[5.6194967,45.2939718],[5.6196518,45.2940042],[5.6198059,45.2940259],[5.6198692,45.2940461],[5.6199071,45.2940434],[5.6200445,45.2940583],[5.6201025,45.2940619],[5.6203131,45.2940753],[5.6204946,45.2940868],[5.6208452,45.294113],[5.6210008,45.2941871],[5.6211416,45.2942047],[5.6212613,45.2942157],[5.6214956,45.2941898],[5.6217018,45.2942001],[5.6218815,45.2942427],[5.6220035,45.2942507],[5.6221569,45.2942275],[5.6222255,45.2942206],[5.6223604,45.2942343],[5.6224528,45.2942321],[5.622548,45.2942594],[5.6227085,45.2943033],[5.6228708,45.2943208],[5.6230106,45.2943276],[5.6234777,45.2942739],[5.6260312,45.2944823],[5.6272773,45.2945756],[5.6286561,45.2946933],[5.6295099,45.2948273],[5.6302253,45.294949],[5.6310423,45.2951229],[5.6316135,45.2952948],[5.6324362,45.2956158],[5.6329751,45.295866],[5.634419,45.2967314],[5.6347161,45.296882],[5.6353585,45.2972693],[5.6362153,45.2978313],[5.6367214,45.2980474],[5.6369912,45.2981484],[5.6372138,45.2982651],[5.6373294,45.2983576],[5.6374469,45.2983901],[5.6376815,45.2984889],[5.6377218,45.2985373],[5.6378339,45.2986245],[5.6379579,45.2986749],[5.6380595,45.2987527],[5.6380992,45.2988688],[5.6381598,45.2989554],[5.6381989,45.2990328],[5.6382811,45.2991505],[5.6383244,45.2992881],[5.6383236,45.2993172],[5.6383199,45.2994552],[5.6382855,45.2996192],[5.6382392,45.2997432],[5.6382317,45.2999607],[5.6382034,45.3001383],[5.6382362,45.3004084],[5.6383556,45.3008264],[5.6384236,45.3009986],[5.6383991,45.3012685],[5.6383991,45.3016054],[5.6384291,45.3018102],[5.6385298,45.3019653],[5.6386958,45.3021012],[5.6388808,45.3022964],[5.6388645,45.302438],[5.6388345,45.3026486],[5.6388971,45.3027979],[5.6391788,45.3030576],[5.6395137,45.3032745],[5.640008,45.3035922],[5.640295,45.3037268],[5.6407574,45.3040147],[5.6411401,45.3041754],[5.6411914,45.304194],[5.641459,45.3042913],[5.6418576,45.304538],[5.6421074,45.304781],[5.6422403,45.305024],[5.6424263,45.3052109],[5.642607,45.3053193],[5.6430216,45.305581],[5.6432129,45.3057193],[5.6432612,45.3058061],[5.643367,45.3059959],[5.6435531,45.3061791],[5.6440048,45.3064669],[5.6443397,45.3066501],[5.6444407,45.3068183],[5.644648,45.3069977],[5.6448925,45.3071099],[5.6451423,45.3074164],[5.6451708,45.3075355],[5.6452539,45.3076332],[5.6453423,45.3077301],[5.6454254,45.3077786],[5.6454375,45.3077837],[5.6454819,45.3078026],[5.6456639,45.3078983],[5.6458492,45.3079958],[5.6461309,45.3082051],[5.6464498,45.3082873],[5.6468962,45.308549],[5.6474224,45.3088219],[5.6480602,45.3091097],[5.6481034,45.3091737],[5.6482317,45.30919],[5.648343,45.309216],[5.6488018,45.3092685],[5.648904,45.3092845],[5.6489488,45.3093131],[5.6492135,45.3094571],[5.6493232,45.3095077],[5.6496229,45.3096273],[5.6497772,45.3096717],[5.6498485,45.3096802],[5.6499327,45.3096823],[5.6500639,45.3097007],[5.650162,45.3097229],[5.6502481,45.3097648],[5.6503157,45.3098164],[5.6504614,45.3099857],[5.6504952,45.3100564],[5.6506715,45.3102598],[5.6508261,45.3103747],[5.6508692,45.3103972],[5.6509625,45.3104696],[5.6512003,45.3106868],[5.6512514,45.3107265],[5.6513444,45.3108224],[5.651392,45.3109092],[5.6514018,45.3110551],[5.6513953,45.3111013],[5.6513511,45.3112383],[5.6512869,45.3113799],[5.6512829,45.3114178],[5.651314,45.3116746],[5.6512995,45.3117056],[5.6512852,45.3117714],[5.6512834,45.3118859],[5.6512981,45.31195],[5.6513244,45.3120158],[5.6515106,45.3120942],[5.6515076,45.3123028],[5.6516263,45.3125147],[5.6516855,45.3125715],[5.6519475,45.3127176],[5.6520429,45.3128053],[5.652195,45.3128651],[5.6523332,45.3129385],[5.6523813,45.3130048],[5.6524526,45.3131646],[5.6524935,45.3132914],[5.6525495,45.3134046],[5.6525939,45.3134833],[5.6526443,45.3135393],[5.6527442,45.3136279],[5.6528082,45.3137552],[5.6528584,45.3138358],[5.6528561,45.3139084],[5.6528399,45.3139651],[5.6528133,45.3140137],[5.6527667,45.314252],[5.6527713,45.31435],[5.6527929,45.3144987],[5.652844,45.314659],[5.6528767,45.314738],[5.6528754,45.3148321],[5.6528497,45.3149615],[5.6528457,45.3149994],[5.6528865,45.3150956],[5.6529777,45.3152764],[5.6530136,45.3153604],[5.6530483,45.3154812],[5.6530751,45.3155266],[5.6530925,45.3155875],[5.653091,45.3156468],[5.6530771,45.315689],[5.6530219,45.3157783],[5.653008,45.3158205],[5.6530114,45.3159226],[5.6529993,45.315973],[5.6529995,45.3160067],[5.6530141,45.3162834],[5.653031,45.3163944],[5.6530823,45.3166191],[5.6531086,45.3167156],[5.6531054,45.3168302],[5.6531129,45.3168658],[5.6531966,45.317012],[5.6532406,45.3171756],[5.653266,45.317312],[5.6532865,45.3173789],[5.6533656,45.3175488],[5.6534106,45.3175873],[5.653426,45.3176005],[5.6534982,45.317656],[5.6535848,45.3177399],[5.6536542,45.3178282],[5.653673,45.3180393],[5.6537243,45.318264],[5.6537794,45.3183874],[5.6537957,45.3184555],[5.6538152,45.318592],[5.6537702,45.3187434],[5.6538742,45.3189663],[5.6539091,45.3190521],[5.6539722,45.3191278],[5.6539851,45.3191554],[5.6540297,45.3192606],[5.6540603,45.319356],[5.6540632,45.3194479],[5.6540831,45.3195313],[5.654147,45.3196851],[5.654228,45.3198345],[5.6542512,45.3198646],[5.6542904,45.3198974],[5.6543749,45.3199383],[5.6544273,45.3199718],[5.6544978,45.320054],[5.6545415,45.3200887],[5.654583,45.3201092],[5.6547524,45.3201655],[5.6548861,45.3202666],[5.6549169,45.3203037],[5.6549548,45.3203989],[5.6549912,45.3204634],[5.6550228,45.3204893],[5.6550913,45.3205285],[5.6551189,45.3205586],[5.6551405,45.3206787],[5.6552158,45.3207995],[5.6553102,45.3209251],[5.6555601,45.3211522],[5.6557155,45.3212804],[5.6559725,45.3215646],[5.6561394,45.3217825],[5.6562721,45.3219214],[5.656389,45.3220648],[5.6564458,45.3222229],[5.6564757,45.3222723],[5.6565786,45.3223946],[5.6566067,45.3224972],[5.6566603,45.3225869],[5.6567436,45.3226636],[5.656841,45.3227317],[5.6568584,45.3227578],[5.6568798,45.3227832],[5.656888,45.322798],[5.6573325,45.323313],[5.6574286,45.323414],[5.6575459,45.3235952],[5.6576172,45.3238133],[5.6576394,45.323915],[5.6576474,45.3240518],[5.6576936,45.3241989],[5.6577393,45.3243072],[5.6577727,45.3244608],[5.6577802,45.3245874],[5.6577545,45.3247158],[5.6577146,45.3247923],[5.6576712,45.3251266],[5.6576037,45.3252908],[5.6575877,45.3253515],[5.657577,45.325551],[5.6575426,45.3256476],[5.658946,45.332931],[5.663023,45.3395677],[5.6675264,45.3455627],[5.6732163,45.3529009],[5.6868838,45.3661975],[5.6989001,45.3730112],[5.7067107,45.3810299],[5.7089423,45.3825973],[5.7152938,45.3839236],[5.7217311,45.3862746],[5.7334041,45.3868774],[5.7382964,45.3868171],[5.7474803,45.3885652],[5.7530593,45.3909763],[5.7573508,45.3972447],[5.7649039,45.405742],[5.7733153,45.4133343],[5.7940864,45.4302023],[5.7988929,45.4346595],[5.8131408,45.4555552],[5.8295344,45.4740959],[5.8489322,45.504422],[5.8545864,45.5190903],[5.854876,45.5201578],[5.8544811,45.5209634],[5.854595,45.5213506],[5.8546864,45.5215681],[5.8546952,45.5216708],[5.8547226,45.521896],[5.8547645,45.5220964],[5.8547656,45.5223393],[5.8547593,45.5225364],[5.8548242,45.5226278],[5.8548854,45.5227854],[5.8549058,45.5228726],[5.8549496,45.5229947],[5.8547462,45.523166],[5.8547297,45.5234267],[5.8548626,45.5236826],[5.8548065,45.5239087],[5.8549307,45.5241158],[5.8549587,45.5243757],[5.8549972,45.5246376],[5.8553537,45.5250122],[5.8559528,45.52548],[5.8561954,45.525784],[5.856212,45.5261578],[5.856622,45.5262972],[5.8569441,45.5263681],[5.8572639,45.5264535],[5.8574603,45.5265843],[5.8575707,45.5268609],[5.8575765,45.5272495],[5.8575928,45.5273198],[5.8576632,45.5273551],[5.8578253,45.5273416],[5.858105,45.5274648],[5.8584054,45.5275629],[5.8588657,45.5276948],[5.8590277,45.5277959],[5.8591524,45.5278639],[5.8593043,45.5280198],[5.8595522,45.528242],[5.8598462,45.5284017],[5.8601663,45.5284479],[5.8603699,45.5286034],[5.8605855,45.5288558],[5.8609627,45.5291478],[5.8611155,45.5292899],[5.8613106,45.5295317],[5.8614636,45.5296762],[5.8617596,45.5301941],[5.8618626,45.5304937],[5.8619914,45.5309006],[5.8615108,45.5311832],[5.8616452,45.5316551],[5.8616067,45.5317595],[5.8614683,45.5318908],[5.8613061,45.532003],[5.861272,45.5320874],[5.8613088,45.5322212],[5.8614083,45.5322775],[5.8616588,45.5323093],[5.8617524,45.5323619],[5.8618317,45.5324546],[5.8619511,45.5325888],[5.8621359,45.5327272],[5.8622499,45.5327906],[5.8624591,45.5330828],[5.8626193,45.5331808],[5.8628557,45.5332094],[5.8630546,45.5332238],[5.8633022,45.5333138],[5.8636021,45.5334177],[5.8638461,45.5334512],[5.86402,45.5335333],[5.8641545,45.5336888],[5.8644395,45.5341332],[5.8644781,45.5341733],[5.8646751,45.5343782],[5.8648845,45.5344437],[5.8650907,45.5344578],[5.8653171,45.5345588],[5.8653679,45.5346654],[5.8653716,45.5349538],[5.8654241,45.5350861],[5.8656078,45.5353225],[5.8657696,45.5355595],[5.8658558,45.535658],[5.866075,45.5358105],[5.8661483,45.5358658],[5.8664549,45.5361488],[5.8665442,45.536323],[5.8666968,45.536496],[5.8668311,45.5366514],[5.8668475,45.5367745],[5.8668446,45.5369976],[5.8670559,45.537217],[5.8673266,45.5374254],[5.8677741,45.5378477],[5.8680355,45.5379294],[5.8684868,45.5383126],[5.8686663,45.5384494],[5.8688516,45.5386761],[5.8691231,45.53875],[5.8695631,45.5387886],[5.8697373,45.5388431],[5.8698849,45.5389809],[5.8700852,45.5391095],[5.8704104,45.5392526],[5.8707472,45.5393283],[5.8709963,45.539571],[5.8713732,45.5396973],[5.8715856,45.5397511],[5.8717539,45.539884],[5.8720226,45.5400483],[5.8723873,45.540175],[5.872593,45.5403153],[5.8728734,45.5404706],[5.8731545,45.5405028],[5.8733563,45.5405244],[5.8734554,45.5407286],[5.8736694,45.5409983],[5.874039,45.5412026],[5.8744974,45.5412572],[5.8747071,45.5412678],[5.8749347,45.5411743],[5.8751994,45.5410708],[5.875418,45.540962],[5.8755443,45.5409835],[5.8756511,45.5410792],[5.8758018,45.5412301],[5.8761341,45.5414489],[5.8770982,45.5418458],[5.8775368,45.5420896],[5.8807111,45.542442],[5.8816337,45.5420062],[5.8821058,45.5416154],[5.8839297,45.54136],[5.8855819,45.5412548],[5.8873629,45.5415403],[5.8887577,45.5411045],[5.8901095,45.5400975],[5.8925342,45.539331],[5.8947229,45.5409241],[5.8965897,45.5405334],[5.8982205,45.5397518],[5.8990145,45.5389102],[5.8992934,45.5385044],[5.9005165,45.5385796],[5.9047221,45.5406837],[5.9080695,45.5448316],[5.9085845,45.5492195],[5.9099578,45.5528859],[5.9102153,45.5581747],[5.9104286,45.5584116],[5.911843,45.5599825],[5.9127044,45.5609392],[5.9162234,45.5629222],[5.9165123,45.562875],[5.9212875,45.5620208],[5.923814,45.560742],[5.9264373,45.5616603],[5.9284972,45.5633429],[5.932045,45.562066],[5.9333943,45.56228],[5.9363078,45.562742],[5.9378063,45.564986],[5.9379712,45.5649238],[5.9383495,45.5648294],[5.938366,45.5648248],[5.9385822,45.5647437],[5.9387844,45.564638],[5.9391289,45.5643989],[5.9393438,45.5642419],[5.9394217,45.5641814],[5.9394519,45.5641604],[5.939571,45.5640759],[5.9398237,45.5637412],[5.9399577,45.5635927],[5.940255,45.563404],[5.9405646,45.5631893],[5.9406995,45.5629372],[5.9407373,45.5628462],[5.9408003,45.5624451],[5.94084,45.5623531],[5.9409481,45.5622187],[5.9409788,45.562159],[5.9409718,45.5621104],[5.9409576,45.562042],[5.9408567,45.5618868],[5.9408425,45.5618286],[5.9408872,45.5617489],[5.9409853,45.5616479],[5.9411553,45.5615089],[5.9412607,45.5614404],[5.9413667,45.5613985],[5.9413974,45.5613904],[5.941485,45.561376],[5.941719,45.561339],[5.941889,45.561322],[5.9420968,45.5612882],[5.9422054,45.5612383],[5.9423066,45.5612231],[5.9424615,45.5612724],[5.9426248,45.5612843],[5.9428367,45.5612283],[5.9429972,45.5612994],[5.9430362,45.5613102],[5.943654,45.561133],[5.9438082,45.5611546],[5.9438672,45.5611499],[5.9439785,45.5610907],[5.9440777,45.5610682],[5.944189,45.5610522],[5.9446021,45.5610128],[5.9447443,45.5609874],[5.9449483,45.5608997],[5.9450931,45.5608293],[5.9453931,45.5607586],[5.9454231,45.5607129],[5.9455581,45.5604492],[5.9456793,45.5604369],[5.9457609,45.5603999],[5.9458066,45.5603411],[5.9459825,45.5600144],[5.9461081,45.559907],[5.9461811,45.5598348],[5.946247,45.5597955],[5.9464902,45.5597111],[5.9466857,45.5596035],[5.9468702,45.5594935],[5.9469283,45.5594368],[5.946962,45.5593506],[5.9470613,45.5589708],[5.947089,45.5589125],[5.9471458,45.5588908],[5.9472208,45.5588806],[5.9473321,45.5588655],[5.9476718,45.5588117],[5.9478672,45.5587855],[5.9479709,45.5587631],[5.9480602,45.5587404],[5.9484012,45.5586026],[5.9484734,45.5585389],[5.9485104,45.5584622],[5.9485339,45.5582756],[5.9485133,45.5581138],[5.9485175,45.5579364],[5.9486097,45.5577998],[5.9489473,45.5576371],[5.9490268,45.5575789],[5.9491863,45.5573616],[5.9493018,45.557222],[5.9494782,45.5571103],[5.9498933,45.5568862],[5.9501464,45.5566202],[5.9502849,45.5565009],[5.9507732,45.556107],[5.9519584,45.5551522],[5.9521134,45.5550308],[5.9522097,45.5550163],[5.9522957,45.5550364],[5.9523469,45.5550613],[5.9524327,45.5551158],[5.9524857,45.5551562],[5.9525479,45.55516],[5.9526133,45.5551464],[5.9526798,45.5551055],[5.953214,45.5546797],[5.9535821,45.5543733],[5.9538566,45.5541448],[5.9542387,45.5539739],[5.954392,45.5538426],[5.9546898,45.5535874],[5.9553266,45.5529408],[5.9558622,45.5523606],[5.9562236,45.5519366],[5.9563582,45.5518168],[5.9563851,45.5517765],[5.956485,45.5516109],[5.9565523,45.5515113],[5.9566578,45.551452],[5.9567737,45.5513654],[5.9568071,45.5513159],[5.9567992,45.5511756],[5.9568287,45.5510559],[5.957031,45.5507602],[5.9573217,45.5503407],[5.957623,45.5498836],[5.9578358,45.5495083],[5.957884,45.5494858],[5.9580366,45.5494984],[5.9581269,45.5494746],[5.9582052,45.5494296],[5.9582533,45.5493776],[5.9582674,45.5493284],[5.9582252,45.549251],[5.9581349,45.5491358],[5.9579807,45.5490468],[5.9578731,45.5489908],[5.9578057,45.5489446],[5.9577776,45.5488926],[5.9578077,45.5488223],[5.9579089,45.5486287],[5.9579368,45.5483339],[5.9580523,45.5480212],[5.9582802,45.5477454],[5.9586271,45.5473533],[5.9589232,45.5469186],[5.9595237,45.5458801],[5.9596657,45.5454369],[5.9603432,45.544323],[5.9608463,45.5434422],[5.9616334,45.5420527],[5.9621932,45.5411605],[5.9623312,45.5408962],[5.9623287,45.5407586],[5.9622704,45.5406597],[5.9619296,45.5405624],[5.9618431,45.5404955],[5.9618749,45.5404012],[5.9620841,45.5400598],[5.9622179,45.5399208],[5.9622092,45.5398453],[5.9621014,45.5396655],[5.9620885,45.53946],[5.962013,45.5393286],[5.9619159,45.5392168],[5.9619224,45.5391458],[5.9619936,45.5390915],[5.9621273,45.5390174],[5.9621963,45.5388936],[5.9624249,45.5386851],[5.9626018,45.5385582],[5.9629861,45.5383645],[5.9630438,45.5382841],[5.9634294,45.5372352],[5.9634697,45.5370499],[5.9635347,45.5367908],[5.9636069,45.5365252],[5.9636043,45.5364858],[5.9635683,45.5363829],[5.9635518,45.5363205],[5.9634966,45.5362004],[5.9634667,45.5360822],[5.963523,45.5359684],[5.9637515,45.535858],[5.9637652,45.5357769],[5.9639377,45.5356863],[5.9640097,45.5354242],[5.9638271,45.5351659],[5.9638977,45.5349801],[5.9640652,45.5349119],[5.9641975,45.5347912],[5.9643636,45.5347007],[5.9643944,45.5345878],[5.9644345,45.5345193],[5.9645729,45.5344924],[5.9646847,45.5344485],[5.964719,45.5343892],[5.964645,45.5343289],[5.9644946,45.5342711],[5.964535,45.5342071],[5.9646263,45.5341414],[5.9647158,45.534049],[5.9648183,45.5339605],[5.9647786,45.5338409],[5.964779,45.5334603],[5.964697,45.5331808],[5.9647647,45.5330488],[5.9647028,45.5329792],[5.9647357,45.5328975],[5.9648116,45.532792],[5.9649507,45.5327452],[5.9649807,45.5327053],[5.9776908,45.5191193],[5.9777822,45.5191967],[5.9779768,45.5193858],[5.9781455,45.5195096],[5.97829,45.5195355],[5.9783721,45.5195297],[5.9785357,45.5194906],[5.9787475,45.519421],[5.9788366,45.5194065],[5.9788836,45.5194124],[5.9790729,45.5194949],[5.9793896,45.5196549],[5.9795372,45.5197449],[5.9798636,45.5199256],[5.9801316,45.5200493],[5.9807188,45.5203352],[5.980828,45.5203083],[5.980904,45.5202759],[5.9810221,45.520274],[5.9810681,45.5202788],[5.9813156,45.5204832],[5.9813758,45.5205353],[5.9814788,45.5205774],[5.9815618,45.5204977],[5.9816575,45.5204601],[5.9817651,45.5204487],[5.9819411,45.5204826],[5.9819862,45.5204827],[5.9821637,45.5204373],[5.9823226,45.520486],[5.9824478,45.5205359],[5.9825726,45.5205477],[5.9826747,45.5205205],[5.9828013,45.5205243],[5.9828842,45.5205153],[5.9831641,45.5204157],[5.9833084,45.5203444],[5.9833866,45.520299],[5.9834382,45.5202942],[5.9835132,45.5203028],[5.9838029,45.5203156],[5.984153,45.5203467],[5.9844474,45.5203853],[5.984639,45.520394],[5.9847459,45.520365],[5.9848159,45.5203676],[5.9848791,45.5203763],[5.9849728,45.5204642],[5.9849928,45.5205645],[5.9850638,45.5206041],[5.9852651,45.5205472],[5.9854968,45.520579],[5.9858105,45.5207156],[5.9861577,45.5208026],[5.9863614,45.5208701],[5.9865992,45.5209215],[5.9868481,45.5210859],[5.9875664,45.5212581],[5.9883807,45.5214426],[5.9885778,45.5214496],[5.9886724,45.5214353],[5.988885,45.5213374],[5.9895719,45.5210133],[5.9908282,45.5205724],[5.9918412,45.5202029],[5.9921301,45.5200899],[5.9923364,45.519971],[5.9925061,45.519859],[5.9926191,45.5197813],[5.9926406,45.5197682],[5.992755,45.5196987],[5.9938359,45.518976],[5.9942573,45.5187255],[5.9950903,45.5182271],[5.995129,45.5181976],[5.9951756,45.5181523],[5.9951857,45.5181212],[5.9951912,45.5180037],[5.9952065,45.5179712],[5.995247,45.5179414],[5.9953756,45.5178973],[5.9956301,45.5178341],[5.9959061,45.5177481],[5.9962673,45.5175431],[5.9970172,45.5170456],[5.9974912,45.5167508],[5.9980731,45.5163764],[5.9983513,45.5162227],[5.9985656,45.5160678],[5.9989222,45.5158354],[5.9990906,45.5157214],[5.9994627,45.515506],[5.999737,45.5153596],[5.9998572,45.515293],[6.0009835,45.5146311],[6.0014421,45.5143724],[6.0015508,45.5143142],[6.0016216,45.5142787],[6.0017305,45.5142247],[6.0037642,45.5132438],[6.0042052,45.5130297],[6.0046616,45.5128098],[6.0047874,45.5127748],[6.0051641,45.5126093],[6.0062953,45.5121272],[6.0065754,45.5120092],[6.0069223,45.5118608],[6.007337,45.5116726],[6.0086289,45.5110985],[6.0091091,45.5108636],[6.0095003,45.5106764],[6.0096223,45.5106505],[6.0098384,45.5105855],[6.0101186,45.5104931],[6.0104116,45.510479],[6.0107178,45.5103604],[6.0109808,45.5102256],[6.0112785,45.5100581],[6.0113877,45.5098957],[6.0115517,45.5097298],[6.0124445,45.5091138],[6.0128769,45.5088271],[6.0130548,45.5087334],[6.013418,45.5086174],[6.0136671,45.5085453],[6.0139717,45.5084482],[6.0144365,45.5083058],[6.0147703,45.5081875],[6.0152448,45.5080386],[6.016266,45.5077495],[6.0167265,45.5076063],[6.0173093,45.5074137],[6.0203338,45.5064786],[6.0235878,45.5071896],[6.0237123,45.5071785],[6.0239278,45.5070852],[6.0241299,45.5070543],[6.0244068,45.5069865],[6.025141,45.5067438],[6.0256452,45.5065564],[6.0262067,45.5063685],[6.0268595,45.506128],[6.0275017,45.5059051],[6.0281428,45.505662],[6.0285638,45.5054369],[6.0288333,45.5053958],[6.0291644,45.5053613],[6.0295594,45.5053507],[6.0298157,45.5053325],[6.0302931,45.5052603],[6.0305433,45.5052096],[6.0309127,45.5051322],[6.0312098,45.5050884],[6.0315997,45.50504],[6.0318351,45.5050347],[6.0332115,45.504705],[6.0336326,45.5045863],[6.0341996,45.5044811],[6.0349785,45.5042831],[6.0352256,45.5041752],[6.0354744,45.5041276],[6.0358439,45.5041288],[6.0360592,45.50408],[6.0364819,45.5040195],[6.0368989,45.504009],[6.0371072,45.5040097],[6.0371947,45.5040071],[6.0372939,45.5039993],[6.0374464,45.5039899],[6.0375255,45.5039825],[6.0376041,45.5039802],[6.0377258,45.5039614],[6.0378049,45.5039569],[6.0379289,45.503948],[6.0380282,45.5039451],[6.0384231,45.503935],[6.0386206,45.5039262],[6.0395268,45.503837],[6.0395667,45.5038216],[6.0398042,45.5037997],[6.0400032,45.5037473],[6.0403955,45.5035823],[6.0415307,45.5028849],[6.0426746,45.5021162],[6.0429712,45.5020066],[6.0430785,45.5019186],[6.043134,45.5018149],[6.0431715,45.50168],[6.0431515,45.5015537],[6.0430771,45.5013104],[6.0429896,45.500823],[6.0429559,45.500692],[6.0426913,45.5005852],[6.0426687,45.498098],[6.0426818,45.4975286],[6.0427362,45.4972332],[6.0426298,45.4969939],[6.0422485,45.4963032],[6.0407649,45.4928329],[6.0401036,45.4914042],[6.0399515,45.4909356],[6.0397888,45.4902674],[6.0397235,45.4896695],[6.0397878,45.4891199],[6.0399097,45.4885853],[6.0400383,45.4882386],[6.0402435,45.4877629],[6.0403553,45.4875137],[6.0403384,45.4874639],[6.0403206,45.4874432],[6.0399311,45.4872062],[6.0398279,45.4871422],[6.0398039,45.4871082],[6.0397934,45.4870439],[6.0397988,45.4869076],[6.0398145,45.4868582],[6.0399476,45.4863571],[6.0362631,45.4842703],[6.0318201,45.4814686],[6.028333,45.4794719],[6.0246156,45.477203],[6.0230666,45.4763641],[6.0217769,45.4753845],[6.0210213,45.4746367],[6.0201283,45.4735518],[6.0190122,45.4718097],[6.0178561,45.4699443],[6.016109,45.4675613],[6.0155335,45.46655],[6.0142428,45.4631278],[6.0139579,45.4623462],[6.0132337,45.4613949],[6.0120356,45.4599654],[6.0117296,45.4594948],[6.011198,45.4584499],[6.0111933,45.4582307],[6.0088288,45.4535675],[6.0081915,45.4525561],[6.0069655,45.4508523],[6.0057424,45.4491656],[6.0051119,45.4477013],[6.0049293,45.4465823],[6.0049841,45.4458289],[6.0050422,45.4434974],[6.0049054,45.4426694],[6.0045588,45.4414078],[6.0044431,45.4406428],[6.0046077,45.4387511],[6.0045341,45.437349],[6.0042118,45.4332185],[6.004082,45.4324008],[6.0039157,45.431949],[6.0033621,45.4307376],[6.0015037,45.4281798],[6.0007967,45.42695],[6.0006326,45.4264714],[6.0005196,45.4258112],[6.0004219,45.4242014],[6.0006517,45.4211875],[6.0007787,45.4123572],[6.0008955,45.411022],[6.0007801,45.4092112],[6.0004663,45.4079263],[5.999773,45.4066406],[5.9987551,45.4052598],[5.9971197,45.4034562],[5.9961726,45.4021721],[5.9940942,45.3990447],[5.9829086,45.3821565],[5.9822292,45.3808695],[5.9818196,45.3796885],[5.9816543,45.3782634],[5.9818209,45.3744991],[5.981944,45.3722246],[5.9821629,45.3707388],[5.9821039,45.3699323],[5.9819097,45.3692047],[5.9814388,45.3683306],[5.9808664,45.3674884],[5.9803198,45.3668754],[5.9772013,45.3644985],[5.9756199,45.3631104],[5.9751103,45.3623724],[5.9745747,45.3610566],[5.9740298,45.3580628],[5.9732223,45.3557228],[5.9709244,45.3499619],[5.9701532,45.3475252],[5.9696763,45.3450076],[5.9683969,45.3415848],[5.9671734,45.3392822],[5.965871,45.337198],[5.9633695,45.3323775],[5.9620981,45.3308496],[5.9609344,45.329451],[5.9602619,45.3286428],[5.9588136,45.3269017],[5.9574356,45.3251065],[5.9559639,45.3234595],[5.9557137,45.3231239],[5.9543634,45.3221072],[5.9525273,45.3207519],[5.9501802,45.3192254],[5.9490357,45.3183367],[5.9467942,45.3168484],[5.945562,45.3160827],[5.9447886,45.3156021],[5.9435057,45.3148525],[5.9424511,45.3142681],[5.9422101,45.3141345],[5.9407835,45.3132025],[5.9385719,45.311952],[5.9365526,45.3107163],[5.9351778,45.3094296],[5.9334696,45.3079869],[5.9325586,45.3068208],[5.9321958,45.3061911],[5.931744,45.305279],[5.9311787,45.3030461],[5.9304276,45.3008265],[5.9299348,45.2996962],[5.9296782,45.2984143],[5.929077,45.2966329],[5.928675,45.2956323],[5.9284162,45.294988],[5.9271469,45.2932079],[5.9268301,45.292983],[5.9258761,45.2922845],[5.9238917,45.2910654],[5.9220635,45.2901687],[5.9201514,45.2890146],[5.9199126,45.2888409],[5.917514,45.2870964],[5.9173961,45.2870106],[5.9170475,45.2864438],[5.9169114,45.2857838],[5.9169899,45.2846667],[5.9172638,45.284347],[5.9177777,45.2837762],[5.9184302,45.2828913],[5.91882,45.2821736],[5.9192702,45.2812758],[5.9193861,45.2804221],[5.9191043,45.2797242],[5.9186863,45.2791345],[5.9180495,45.2787112],[5.9173405,45.2779811],[5.9170892,45.2778029],[5.9166135,45.2774654],[5.916014,45.2770654],[5.9154843,45.2765688],[5.9149345,45.2758904],[5.9145273,45.2752107],[5.9141452,45.2743604],[5.9132453,45.2724281],[5.9119005,45.2706949],[5.9111593,45.2693084],[5.9106112,45.2685097],[5.9098319,45.2678551],[5.9084294,45.2674349],[5.9071894,45.2672511],[5.9056426,45.2673376],[5.9037249,45.2674029],[5.9028509,45.2671621],[5.9018675,45.2667943],[5.9006673,45.2660546],[5.8998879,45.2655353],[5.8998623,45.2655182],[5.8990206,45.2649633],[5.8973364,45.26371],[5.8939347,45.261413],[5.8921337,45.2599088],[5.8917068,45.2595096],[5.8897828,45.2577105],[5.8892132,45.2568381],[5.8881446,45.2549431],[5.886871,45.2525145],[5.8862813,45.250459],[5.8844688,45.2479235],[5.8838693,45.2458359],[5.8831789,45.2441403],[5.8831626,45.2432849],[5.8831251,45.2424464],[5.8829319,45.2417967],[5.8825852,45.2411361],[5.8824207,45.2406196],[5.8821297,45.2400458],[5.8820398,45.2398297],[5.8819388,45.2394244],[5.8818623,45.238907],[5.8813191,45.2381801],[5.8806457,45.2369763],[5.8799961,45.2359453],[5.8794953,45.2351846],[5.879262,45.2350506],[5.8788673,45.2349221],[5.8777983,45.2346211],[5.8766551,45.2343825],[5.8762213,45.2343129],[5.8754275,45.2342166],[5.87485,45.2342342],[5.8745116,45.234272],[5.874173,45.2343074],[5.8736974,45.234367],[5.8732679,45.2344252],[5.872947,45.23446],[5.87193,45.2345461],[5.8705552,45.2346429],[5.8703059,45.2346881],[5.8699933,45.2347428],[5.8690646,45.234939],[5.8673104,45.2353934],[5.8658761,45.235798],[5.8645247,45.2362227],[5.8637838,45.2364733],[5.8618094,45.2371626],[5.8607276,45.2375263],[5.8602464,45.2376111],[5.8598698,45.237605],[5.8596061,45.2375879],[5.8591591,45.2375337],[5.858632,45.2374468],[5.8582174,45.2373414],[5.8568272,45.2368012],[5.856111,45.2362907],[5.8558595,45.2354449],[5.8557986,45.2337534],[5.8556525,45.2318526],[5.8550952,45.2307261],[5.85377,45.2296625],[5.8535201,45.2294681],[5.8508306,45.2273758],[5.8459066,45.2235761],[5.8454902,45.2232547],[5.845177,45.2230404],[5.8449508,45.2229518],[5.8438819,45.2221755],[5.8430368,45.2213792],[5.8417006,45.2199019],[5.8415545,45.2197946],[5.8406013,45.2190867],[5.8391707,45.2180628],[5.8369411,45.2168508],[5.8363789,45.2165795],[5.8350628,45.2158936],[5.8335181,45.2150007],[5.832387,45.2141565],[5.8314289,45.2133148],[5.830338,45.2122402],[5.8283294,45.2100936],[5.826534,45.208437],[5.8249439,45.2071406],[5.8242196,45.2062307],[5.8232831,45.205205],[5.8224713,45.2043537],[5.8214975,45.2036518],[5.8205172,45.2030773],[5.820051,45.202859],[5.8192531,45.2028015],[5.8187675,45.2028299],[5.8185271,45.2028847],[5.8181904,45.2030297],[5.8178353,45.2031414],[5.8173866,45.2033749],[5.8167086,45.2038531],[5.8155584,45.2045952],[5.8140158,45.2056701],[5.813288,45.2061617],[5.8129151,45.2062561],[5.8114102,45.206414],[5.810823,45.2064434],[5.8092509,45.2064606],[5.8086101,45.2064381],[5.8068507,45.2064192],[5.8054935,45.2064433],[5.8047109,45.2064337],[5.8035257,45.2063874],[5.8030278,45.2063606],[5.8005197,45.2060606],[5.7996584,45.2058578],[5.7976997,45.2051905],[5.7968164,45.204732],[5.7964765,45.2044066],[5.796358,45.2041477],[5.7962276,45.203823],[5.7963198,45.2035631],[5.7965161,45.2033537],[5.7968895,45.2029693],[5.7975525,45.2024508],[5.7979217,45.2021966],[5.798707,45.2014588],[5.7989551,45.201201],[5.7991785,45.2007455],[5.7993639,45.2003767],[5.7994663,45.2000653],[5.7994102,45.1997036],[5.7992358,45.1993851],[5.7991965,45.1992336],[5.7990155,45.1990955],[5.7989028,45.1989431],[5.798526,45.198707],[5.7977802,45.198149],[5.79696,45.1977918],[5.7960941,45.1974633],[5.7949209,45.1970524],[5.7942669,45.1968031],[5.7937297,45.1964832],[5.7930622,45.1961519],[5.7925782,45.1957815],[5.7923138,45.1954016],[5.7922661,45.1949634],[5.7925812,45.1945968],[5.7930317,45.1942567],[5.7938898,45.1939442],[5.7945308,45.193724],[5.7952248,45.1935092],[5.7978419,45.1929749],[5.7982944,45.1928032],[5.7986221,45.1927575],[5.8000771,45.1925165],[5.8006993,45.1922931],[5.8011169,45.1922195],[5.8020647,45.1920835],[5.802644,45.1919081],[5.8031519,45.1918138],[5.8040874,45.1915595],[5.8050322,45.1911908],[5.8054768,45.1908823],[5.8059588,45.190325],[5.8061642,45.1900327],[5.8061963,45.18986],[5.8061996,45.1895119],[5.8061684,45.1886203],[5.8060163,45.1882221],[5.8057233,45.1878726],[5.8052094,45.1874386],[5.8046575,45.1871351],[5.8042229,45.1870078],[5.8033301,45.1868691],[5.8024761,45.1869556],[5.8019051,45.187164],[5.8009706,45.1874521],[5.7989949,45.188349],[5.7986328,45.188601],[5.7982635,45.1887326],[5.7980201,45.1888668],[5.7969507,45.1891526],[5.7956691,45.189343],[5.7949525,45.1893707],[5.7943535,45.1894139],[5.7923212,45.18936],[5.789661,45.189397],[5.7875406,45.1897619],[5.7865027,45.1899422],[5.7837827,45.1905669],[5.7829007,45.1909745],[5.7816672,45.1915445],[5.7809841,45.1920073],[5.7804271,45.1925978],[5.7801916,45.1933343],[5.7801376,45.1941373],[5.7799462,45.1953329],[5.7797079,45.1961652],[5.7795602,45.1965284],[5.7793592,45.1972758],[5.7791518,45.1980594],[5.7780284,45.1995158],[5.7770011,45.2004565],[5.7753295,45.2008861],[5.774148,45.2009125],[5.7735555,45.2007948],[5.7720031,45.2004098],[5.7716352,45.2002516],[5.7708607,45.1996831],[5.7700378,45.1987396],[5.7693301,45.1982159],[5.7673069,45.1971376],[5.7651624,45.19619],[5.7633257,45.1958453],[5.7627057,45.1958237],[5.7611425,45.1958086],[5.7592799,45.1961473],[5.7580268,45.1965768],[5.7571599,45.1970243],[5.7564819,45.1972118],[5.7557351,45.19723],[5.7548768,45.1969941],[5.7542331,45.1965707],[5.7536495,45.1957844],[5.7529564,45.194778],[5.7523265,45.1926235],[5.7515522,45.1908163],[5.7510856,45.190126],[5.7500446,45.1892155],[5.7491122,45.1888764],[5.7486437,45.1887896],[5.7478884,45.1887079],[5.7477235,45.1886901],[5.746607,45.1887672],[5.7453914,45.1889462],[5.7439964,45.1893485],[5.7429571,45.1899654],[5.7421176,45.1908246],[5.7419612,45.1914571],[5.7419076,45.1919782],[5.7420942,45.1933867],[5.7429795,45.1958983],[5.7431376,45.1968298],[5.7428954,45.1984007],[5.7427332,45.1987564],[5.7422248,45.1995976],[5.7415019,45.2003998],[5.7413091,45.2005533],[5.7411177,45.2006799],[5.7405966,45.2010582],[5.7392679,45.2017377],[5.7382281,45.2020381],[5.7372281,45.2021313],[5.736497,45.2020432],[5.7358689,45.2018063],[5.7354911,45.2016236],[5.734922,45.201257],[5.7344466,45.2006993],[5.7339274,45.1997717],[5.7335657,45.1985173],[5.7329252,45.1971603],[5.7328773,45.1970588],[5.7320547,45.1961604],[5.7314336,45.1957682],[5.7293123,45.1944286],[5.7285979,45.1941065],[5.7280144,45.1939368],[5.7256756,45.1934838],[5.7241657,45.1931215],[5.7224212,45.1929007],[5.720501,45.1927341],[5.7200491,45.192742],[5.7198429,45.1927576],[5.7189394,45.1928859],[5.717599,45.1933136],[5.7166775,45.1937756],[5.7158542,45.1943819],[5.715415,45.1950889],[5.7152132,45.1958418],[5.715152,45.196757],[5.7151954,45.1976935],[5.7154067,45.1997808],[5.7152501,45.2004467],[5.7149028,45.2011182],[5.7136457,45.2024574],[5.7123065,45.2035107],[5.7108774,45.2045261],[5.7075092,45.2056214],[5.7065499,45.205802],[5.7036327,45.2068422],[5.7007986,45.207985],[5.6978441,45.2089263],[5.696681,45.209261],[5.6957281,45.2096998],[5.6944544,45.2100975],[5.6928873,45.2104388],[5.6905221,45.2106567],[5.6883096,45.210968],[5.6840442,45.2118927],[5.6826045,45.2125045],[5.6808422,45.2134128],[5.6796304,45.2140762],[5.6770274,45.2154525],[5.6759958,45.2157489],[5.6753011,45.2155594],[5.6745245,45.2160096],[5.67411,45.2162779],[5.6727868,45.217251],[5.6719467,45.2179854],[5.6703386,45.2200281],[5.6678853,45.2234011],[5.6672503,45.2242929],[5.6657198,45.2264423],[5.66249,45.230877],[5.6603387,45.2337509],[5.65857,45.2362092],[5.6585132,45.2362882],[5.658431,45.2364024],[5.6577306,45.2373759],[5.6552984,45.2407189],[5.6524736,45.2445974],[5.6516594,45.2456815],[5.6504145,45.2471958],[5.6484903,45.2487696],[5.6454856,45.2509527],[5.6442857,45.2518628],[5.6427301,45.2531206],[5.6413333,45.253972],[5.6403643,45.2544462],[5.6396948,45.2547739],[5.6384188,45.2552426],[5.6376155,45.2556057],[5.6346012,45.2578421],[5.6301315,45.2614147],[5.6259492,45.265283],[5.6253988,45.2664602],[5.6244678,45.2677568],[5.6234453,45.2681015],[5.621947,45.2703736],[5.6202293,45.273564],[5.6197213,45.2755829],[5.6198877,45.2760649],[5.619652,45.2767989],[5.6191033,45.2773266],[5.6187768,45.2794888],[5.6189203,45.2814503],[5.6194163,45.2829671],[5.6191054,45.2845338],[5.6185437,45.2856629],[5.6179574,45.286151],[5.6165123,45.2894229],[5.6162447,45.2925595],[5.6160655,45.2939019]]]]}}